STARLINK-5246           
1 54198U 22141AT  26022.87516790 -.00002241  00000+0 -12280-3 0  9998
2 54198  53.2156 199.6323 0001889  87.3016 272.8192 15.08829910179084
STARLINK-5244           
1 54199U 22141AU  26022.88252225 -.00005068  00000+0 -30066-3 0  9992
2 54199  53.2150 199.6793 0001482  88.3039 271.8123 15.08824381179085
STARLINK-5250           
1 54200U 22141AV  26022.47035573 -.00001167  00000+0 -55258-4 0  9992
2 54200  53.2165 201.3732 0001521  88.9039 271.2127 15.08835099179028
STARLINK-5199           
1 54201U 22141AW  26022.88989543  .00002458  00000+0  17245-3 0  9998
2 54201  53.2142 199.7187 0002386  87.7467 272.3798 15.08850328179084
STARLINK-5205           
1 54202U 22141AX  26022.92665162 -.00001827  00000+0 -96752-4 0  9994
2 54202  53.2143 199.2447 0001596  81.5838 278.5335 15.08834915179096
STARLINK-5247           
1 54203U 22141AY  26022.47403467 -.00002555  00000+0 -14247-3 0  9990
2 54203  53.2162 201.3958 0001721  86.5092 273.6097 15.08839090179020
STARLINK-5241           
1 54204U 22141AZ  26022.91560886 -.00001970  00000+0 -10577-3 0  9991
2 54204  53.2168 199.1772 0001319  74.8775 285.2363 15.08834090179093
STARLINK-5249           
1 54205U 22141BA  26022.92298156  .00000093  00000+0  23968-4 0  9993
2 54205  53.2159 199.2230 0001488 100.8139 259.3021 15.08826615179092
STARLINK-5264           
1 54206U 22141BB  26022.80293944 -.00001457  00000+0 -73451-4 0  9990
2 54206  53.2164 164.9501 0001203  87.9059 272.2071 15.08842448179563
STARLINK-5262           
1 54207U 22141BC  26022.91929953 -.00001766  00000+0 -92939-4 0  9994
2 54207  53.2167 199.1994 0001296  77.9367 282.1771 15.08831496179092
STARLINK-5255           
1 54208U 22141BD  26022.82412579 -.00002181  00000+0 -11898-3 0  9992
2 54208  53.2196 175.0656 0001663  98.2912 261.8269 15.08832680179422
STARLINK-5259           
1 54209U 22141BE  26022.46021918 -.00002272  00000+0 -12474-3 0  9998
2 54209  53.2164 191.3102 0001494  80.4214 279.6947 15.08831663179166
STARLINK-5464           
1 54758U 22175A   26022.96491071 -.00002752  00000+0 -15494-3 0  9998
2 54758  53.2140 244.5827 0001270 101.6869 258.4266 15.08829444173086
STARLINK-5215           
1 54759U 22175B   26022.63738896  .00000614  00000+0  56703-4 0  9994
2 54759  53.2158 246.0849 0001217  72.4779 287.6346 15.08825489173036
STARLINK-5220           
1 54760U 22175C   26022.63508019 -.00000326  00000+0 -23682-5 0  9991
2 54760  53.2167 251.0614 0002175  82.1267 277.9972 15.08836179172964
STARLINK-5202           
1 54761U 22175D   26022.04259954 -.00001900  00000+0 -10134-3 0  9993
2 54761  53.2160 253.7571 0001426  94.1774 265.9381 15.08835938172876
