[{"OBJECT_NAME":"STARLINK-5246","OBJECT_ID":"2022-141AT","EPOCH":"2026-01-22T21:00:14.506560","MEAN_MOTION":15.0882991,"ECCENTRICITY":0.00018896,"INCLINATION":53.2156,"RA_OF_ASC_NODE":199.6323,"ARG_OF_PERICENTER":87.3016,"MEAN_ANOMALY":272.8192,"EPHEMERIS_TYPE":0,"CLASSIFICATION_TYPE":"U","NORAD_CAT_ID":54198,"ELEMENT_SET_NO":999,"REV_AT_EPOCH":17908,"BSTAR":-0.00012279593,"MEAN_MOTION_DOT":-2.241e-5,"MEAN_MOTION_DDOT":0},{"OBJECT_NAME":"STARLINK-5244","OBJECT_ID":"2022-141AU","EPOCH":"2026-01-22T21:10:49.922400","MEAN_MOTION":15.08824381,"ECCENTRICITY":0.00014821,"INCLINATION":53.215,"RA_OF_ASC_NODE":199.6793,"ARG_OF_PERICENTER":88.3039,"MEAN_ANOMALY":271.8123,"EPHEMERIS_TYPE":0,"CLASSIFICATION_TYPE":"U","NORAD_CAT_ID":54199,"ELEMENT_SET_NO":999,"REV_AT_EPOCH":17908,"BSTAR":-0.00030065889,"MEAN_MOTION_DOT":-5.068e-5,"MEAN_MOTION_DDOT":0},{"OBJECT_NAME":"STARLINK-5250","OBJECT_ID":"2022-141AV","EPOCH":"2026-01-22T11:17:18.735072","MEAN_MOTION":15.08835099,"ECCENTRICITY":0.00015214,"INCLINATION":53.2165,"RA_OF_ASC_NODE":201.3732,"ARG_OF_PERICENTER":88.9039,"MEAN_ANOMALY":271.2127,"EPHEMERIS_TYPE":0,"CLASSIFICATION_TYPE":"U","NORAD_CAT_ID":54200,"ELEMENT_SET_NO":999,"REV_AT_EPOCH":17902,"BSTAR":-5.525786e-5,"MEAN_MOTION_DOT":-1.167e-5,"MEAN_MOTION_DDOT":0},{"OBJECT_NAME":"STARLINK-5199","OBJECT_ID":"2022-141AW","EPOCH":"2026-01-22T21:21:26.965152","MEAN_MOTION":15.08850328,"ECCENTRICITY":0.0002386,"INCLINATION":53.2142,"RA_OF_ASC_NODE":199.7187,"ARG_OF_PERICENTER":87.7467,"MEAN_ANOMALY":272.3798,"EPHEMERIS_TYPE":0,"CLASSIFICATION_TYPE":"U","NORAD_CAT_ID":54201,"ELEMENT_SET_NO":999,"REV_AT_EPOCH":17908,"BSTAR":0.00017245369,"MEAN_MOTION_DOT":2.458e-5,"MEAN_MOTION_DDOT":0},{"OBJECT_NAME":"STARLINK-5205","OBJECT_ID":"2022-141AX","EPOCH":"2026-01-22T22:14:22.699968","MEAN_MOTION":15.08834915,"ECCENTRICITY":0.00015969,"INCLINATION":53.2143,"RA_OF_ASC_NODE":199.2447,"ARG_OF_PERICENTER":81.5838,"MEAN_ANOMALY":278.5335,"EPHEMERIS_TYPE":0,"CLASSIFICATION_TYPE":"U","NORAD_CAT_ID":54202,"ELEMENT_SET_NO":999,"REV_AT_EPOCH":17909,"BSTAR":-9.6751662e-5,"MEAN_MOTION_DOT":-1.827e-5,"MEAN_MOTION_DDOT":0},{"OBJECT_NAME":"STARLINK-5247","OBJECT_ID":"2022-141AY","EPOCH":"2026-01-22T11:22:36.595488","MEAN_MOTION":15.0883909,"ECCENTRICITY":0.00017214,"INCLINATION":53.2162,"RA_OF_ASC_NODE":201.3958,"ARG_OF_PERICENTER":86.5092,"MEAN_ANOMALY":273.6097,"EPHEMERIS_TYPE":0,"CLASSIFICATION_TYPE":"U","NORAD_CAT_ID":54203,"ELEMENT_SET_NO":999,"REV_AT_EPOCH":17902,"BSTAR":-0.00014246601,"MEAN_MOTION_DOT":-2.555e-5,"MEAN_MOTION_DDOT":0},{"OBJECT_NAME":"STARLINK-5241","OBJECT_ID":"2022-141AZ","EPOCH":"2026-01-22T21:58:28.605504","MEAN_MOTION":15.0883409,"ECCENTRICITY":0.0001319,"INCLINATION":53.2168,"RA_OF_ASC_NODE":199.1772,"ARG_OF_PERICENTER":74.8775,"MEAN_ANOMALY":285.2363,"EPHEMERIS_TYPE":0,"CLASSIFICATION_TYPE":"U","NORAD_CAT_ID":54204,"ELEMENT_SET_NO":999,"REV_AT_EPOCH":17909,"BSTAR":-0.00010576629,"MEAN_MOTION_DOT":-1.97e-5,"MEAN_MOTION_DDOT":0},{"OBJECT_NAME":"STARLINK-5249","OBJECT_ID":"2022-141BA","EPOCH":"2026-01-22T22:09:05.606784","MEAN_MOTION":15.08826615,"ECCENTRICITY":0.0001488,"INCLINATION":53.2159,"RA_OF_ASC_NODE":199.223,"ARG_OF_PERICENTER":100.8139,"MEAN_ANOMALY":259.3021,"EPHEMERIS_TYPE":0,"CLASSIFICATION_TYPE":"U","NORAD_CAT_ID":54205,"ELEMENT_SET_NO":999,"REV_AT_EPOCH":17909,"BSTAR":2.3967999e-5,"MEAN_MOTION_DOT":9.3e-7,"MEAN_MOTION_DDOT":0},{"OBJECT_NAME":"STARLINK-5264","OBJECT_ID":"2022-141BB","EPOCH":"2026-01-22T19:16:13.967616","MEAN_MOTION":15.08842448,"ECCENTRICITY":0.00012032,"INCLINATION":53.2164,"RA_OF_ASC_NODE":164.9501,"ARG_OF_PERICENTER":87.9059,"MEAN_ANOMALY":272.2071,"EPHEMERIS_TYPE":0,"CLASSIFICATION_TYPE":"U","NORAD_CAT_ID":54206,"ELEMENT_SET_NO":999,"REV_AT_EPOCH":17956,"BSTAR":-7.345126e-5,"MEAN_MOTION_DOT":-1.457e-5,"MEAN_MOTION_DDOT":0},{"OBJECT_NAME":"STARLINK-5262","OBJECT_ID":"2022-141BC","EPOCH":"2026-01-22T22:03:47.479392","MEAN_MOTION":15.08831496,"ECCENTRICITY":0.00012966,"INCLINATION":53.2167,"RA_OF_ASC_NODE":199.1994,"ARG_OF_PERICENTER":77.9367,"MEAN_ANOMALY":282.1771,"EPHEMERIS_TYPE":0,"CLASSIFICATION_TYPE":"U","NORAD_CAT_ID":54207,"ELEMENT_SET_NO":999,"REV_AT_EPOCH":17909,"BSTAR":-9.293934e-5,"MEAN_MOTION_DOT":-1.766e-5,"MEAN_MOTION_DDOT":0},{"OBJECT_NAME":"STARLINK-5255","OBJECT_ID":"2022-141BD","EPOCH":"2026-01-22T19:46:44.468256","MEAN_MOTION":15.0883268,"ECCENTRICITY":0.00016631,"INCLINATION":53.2196,"RA_OF_ASC_NODE":175.0656,"ARG_OF_PERICENTER":98.2912,"MEAN_ANOMALY":261.8269,"EPHEMERIS_TYPE":0,"CLASSIFICATION_TYPE":"U","NORAD_CAT_ID":54208,"ELEMENT_SET_NO":999,"REV_AT_EPOCH":17942,"BSTAR":-0.00011897643,"MEAN_MOTION_DOT":-2.181e-5,"MEAN_MOTION_DDOT":0},{"OBJECT_NAME":"STARLINK-5259","OBJECT_ID":"2022-141BE","EPOCH":"2026-01-22T11:02:42.937152","MEAN_MOTION":15.08831663,"ECCENTRICITY":0.00014948,"INCLINATION":53.2164,"RA_OF_ASC_NODE":191.3102,"ARG_OF_PERICENTER":80.4214,"MEAN_ANOMALY":279.6947,"EPHEMERIS_TYPE":0,"CLASSIFICATION_TYPE":"U","NORAD_CAT_ID":54209,"ELEMENT_SET_NO":999,"REV_AT_EPOCH":17916,"BSTAR":-0.00012474272,"MEAN_MOTION_DOT":-2.272e-5,"MEAN_MOTION_DDOT":0},{"OBJECT_NAME":"STARLINK-5464","OBJECT_ID":"2022-175A","EPOCH":"2026-01-22T23:09:28.285344","MEAN_MOTION":15.08829444,"ECCENTRICITY":0.00012707,"INCLINATION":53.214,"RA_OF_ASC_NODE":244.5827,"ARG_OF_PERICENTER":101.6869,"MEAN_ANOMALY":258.4266,"EPHEMERIS_TYPE":0,"CLASSIFICATION_TYPE":"U","NORAD_CAT_ID":54758,"ELEMENT_SET_NO":999,"REV_AT_EPOCH":17308,"BSTAR":-0.00015494262,"MEAN_MOTION_DOT":-2.752e-5,"MEAN_MOTION_DDOT":0},{"OBJECT_NAME":"STARLINK-5215","OBJECT_ID":"2022-175B","EPOCH":"2026-01-22T15:17:50.406144","MEAN_MOTION":15.08825489,"ECCENTRICITY":0.00012174,"INCLINATION":53.2158,"RA_OF_ASC_NODE":246.0849,"ARG_OF_PERICENTER":72.4779,"MEAN_ANOMALY":287.6346,"EPHEMERIS_TYPE":0,"CLASSIFICATION_TYPE":"U","NORAD_CAT_ID":54759,"ELEMENT_SET_NO":999,"REV_AT_EPOCH":17303,"BSTAR":5.6702549e-5,"MEAN_MOTION_DOT":6.14e-6,"MEAN_MOTION_DDOT":0},{"OBJECT_NAME":"STARLINK-5220","OBJECT_ID":"2022-175C","EPOCH":"2026-01-22T15:14:30.928416","MEAN_MOTION":15.08836179,"ECCENTRICITY":0.00021754,"INCLINATION":53.2167,"RA_OF_ASC_NODE":251.0614,"ARG_OF_PERICENTER":82.1267,"MEAN_ANOMALY":277.9972,"EPHEMERIS_TYPE":0,"CLASSIFICATION_TYPE":"U","NORAD_CAT_ID":54760,"ELEMENT_SET_NO":999,"REV_AT_EPOCH":17296,"BSTAR":-2.368152e-6,"MEAN_MOTION_DOT":-3.26e-6,"MEAN_MOTION_DDOT":0},{"OBJECT_NAME":"STARLINK-5202","OBJECT_ID":"2022-175D","EPOCH":"2026-01-22T01:01:20.600256","MEAN_MOTION":15.08835938,"ECCENTRICITY":0.00014261,"INCLINATION":53.216,"RA_OF_ASC_NODE":253.7571,"ARG_OF_PERICENTER":94.1774,"MEAN_ANOMALY":265.9381,"EPHEMERIS_TYPE":0,"CLASSIFICATION_TYPE":"U","NORAD_CAT_ID":54761,"ELEMENT_SET_NO":999,"REV_AT_EPOCH":17287,"BSTAR":-0.00010133877,"MEAN_MOTION_DOT":-1.9e-5,"MEAN_MOTION_DDOT":0}]
